start=new Date('2022-11-10T00:00:00.000Z').valueOf();
sats=[{"OBJECT_TYPE":"PAYLOAD","COUNTRY_CODE":"US","SEMIMAJOR_AXIS":"6917.945","RCS_SIZE":"LARGE","EPOCH":"2022-11-09T19:53:40.533504","BSTAR":"-0.00026730000000","LAUNCH_DATE":"2022-06-17","MEAN_MOTION":"15.08818878","ECCENTRICITY":"0.00023990","PERIOD":"95.439","SITE":"AFETR","OBJECT_ID":"2022-062U","TLE_LINE2":"2 52848  53.2192  92.3448 0002399  35.5521 324.5630 15.08818878 22231","TLE_LINE1":"1 52848U 22062U   22313.82894136 -.00004538  00000-0 -26730-3 0  9994","REF_FRAME":"TEME","DECAY_DATE":null,"MEAN_MOTION_DOT":"-0.00004538","INCLINATION":"53.2192","MEAN_ELEMENT_THEORY":"SGP4","MEAN_ANOMALY":"324.5630","NORAD_CAT_ID":"52848","EPHEMERIS_TYPE":"0","TIME_SYSTEM":"UTC","APOAPSIS":"541.470","REV_AT_EPOCH":"2223","FILE":"3650001","PERIAPSIS":"538.150","OBJECT_NAME":"STARLINK-4202","MEAN_MOTION_DDOT":"0.0000000000000","ARG_OF_PERICENTER":"35.5521","CLASSIFICATION_TYPE":"U","ELEMENT_SET_NO":"999","CENTER_NAME":"EARTH","RA_OF_ASC_NODE":"92.3448","GP_ID":"217276487"},{"SITE":"AFETR","PERIOD":"95.438","ECCENTRICITY":"0.00026600","TLE_LINE2":"2 52849  53.2189  83.3262 0002660  23.0259 337.0852 15.08835263 22820","TLE_LINE1":"1 52849U 22062V   22313.60537460 -.00002174  00000-0 -11853-3 0  9999","INCLINATION":"53.2189","DECAY_DATE":null,"MEAN_MOTION_DOT":"-0.00002174","REF_FRAME":"TEME","OBJECT_ID":"2022-062V","NORAD_CAT_ID":"52849","MEAN_ANOMALY":"337.0852","EPHEMERIS_TYPE":"0","MEAN_ELEMENT_THEORY":"SGP4","TIME_SYSTEM":"UTC","COUNTRY_CODE":"US","OBJECT_TYPE":"PAYLOAD","EPOCH":"2022-11-09T14:31:44.365440","SEMIMAJOR_AXIS":"6917.895","RCS_SIZE":"LARGE","LAUNCH_DATE":"2022-06-17","BSTAR":"-0.00011853000000","MEAN_MOTION":"15.08835263","CLASSIFICATION_TYPE":"U","ELEMENT_SET_NO":"999","CENTER_NAME":"EARTH","RA_OF_ASC_NODE":"83.3262","GP_ID":"217251086","REV_AT_EPOCH":"2282","APOAPSIS":"541.600","PERIAPSIS":"537.920","FILE":"3649958","OBJECT_NAME":"STARLINK-4197","ARG_OF_PERICENTER":"23.0259","MEAN_MOTION_DDOT":"0.0000000000000"},{"OBJECT_TYPE":"PAYLOAD","COUNTRY_CODE":"US","RCS_SIZE":"LARGE","SEMIMAJOR_AXIS":"6917.950","EPOCH":"2022-11-09T16:21:43.038432","MEAN_MOTION":"15.08817216","LAUNCH_DATE":"2022-06-17","BSTAR":"-0.00019312000000","ECCENTRICITY":"0.00017800","SITE":"AFETR","PERIOD":"95.439","OBJECT_ID":"2022-062W","MEAN_MOTION_DOT":"-0.00003358","TLE_LINE1":"1 52850U 22062W   22313.68174813 -.00003358  00000-0 -19312-3 0  9991","DECAY_DATE":null,"REF_FRAME":"TEME","INCLINATION":"53.2200","TLE_LINE2":"2 52850  53.2200  92.9877 0001780  58.6070 301.5096 15.08817216 22218","MEAN_ELEMENT_THEORY":"SGP4","EPHEMERIS_TYPE":"0","NORAD_CAT_ID":"52850","MEAN_ANOMALY":"301.5096","TIME_SYSTEM":"UTC","APOAPSIS":"541.046","REV_AT_EPOCH":"2221","FILE":"3650001","PERIAPSIS":"538.584","OBJECT_NAME":"STARLINK-4187","MEAN_MOTION_DDOT":"0.0000000000000","ARG_OF_PERICENTER":"58.6070","CLASSIFICATION_TYPE":"U","ELEMENT_SET_NO":"999","CENTER_NAME":"EARTH","RA_OF_ASC_NODE":"92.9877","GP_ID":"217276656"},{"TIME_SYSTEM":"UTC","MEAN_ELEMENT_THEORY":"SGP4","EPHEMERIS_TYPE":"0","NORAD_CAT_ID":"52851","MEAN_ANOMALY":"325.6703","OBJECT_ID":"2022-062X","TLE_LINE1":"1 52851U 22062X   22313.66793549 -.00000826  00000-0 -33826-4 0  9997","DECAY_DATE":null,"MEAN_MOTION_DOT":"-0.00000826","REF_FRAME":"TEME","INCLINATION":"53.2178","TLE_LINE2":"2 52851  53.2178  83.0485 0002182  34.4430 325.6703 15.08828035 22345","ECCENTRICITY":"0.00021820","PERIOD":"95.438","SITE":"AFETR","LAUNCH_DATE":"2022-06-17","MEAN_MOTION":"15.08828035","BSTAR":"-0.00003382600000","RCS_SIZE":"LARGE","SEMIMAJOR_AXIS":"6917.917","EPOCH":"2022-11-09T16:01:49.626336","OBJECT_TYPE":"PAYLOAD","COUNTRY_CODE":"US","GP_ID":"217277414","CENTER_NAME":"EARTH","RA_OF_ASC_NODE":"83.0485","ELEMENT_SET_NO":"999","CLASSIFICATION_TYPE":"U","MEAN_MOTION_DDOT":"0.0000000000000","ARG_OF_PERICENTER":"34.4430","PERIAPSIS":"538.272","FILE":"3650001","OBJECT_NAME":"STARLINK-3809","APOAPSIS":"541.291","REV_AT_EPOCH":"2234"},{"PERIAPSIS":"538.299","FILE":"3650001","OBJECT_NAME":"STARLINK-4184","APOAPSIS":"541.258","REV_AT_EPOCH":"2236","MEAN_MOTION_DDOT":"0.0000000000000","ARG_OF_PERICENTER":"36.3356","ELEMENT_SET_NO":"999","CLASSIFICATION_TYPE":"U","GP_ID":"217276906","RA_OF_ASC_NODE":"82.4220","CENTER_NAME":"EARTH","RCS_SIZE":"LARGE","SEMIMAJOR_AXIS":"6917.913","EPOCH":"2022-11-09T19:23:11.407488","OBJECT_TYPE":"PAYLOAD","COUNTRY_CODE":"US","LAUNCH_DATE":"2022-06-17","MEAN_MOTION":"15.08829179","BSTAR":"-0.00023026000000","OBJECT_ID":"2022-062Y","DECAY_DATE":null,"TLE_LINE1":"1 52852U 22062Y   22313.80777092 -.00003950  00000-0 -23026-3 0  9990","MEAN_MOTION_DOT":"-0.00003950","REF_FRAME":"TEME","INCLINATION":"53.2167","TLE_LINE2":"2 52852  53.2167  82.4220 0002138  36.3356 323.7781 15.08829179 22360","ECCENTRICITY":"0.00021380","PERIOD":"95.438","SITE":"AFETR","TIME_SYSTEM":"UTC","MEAN_ELEMENT_THEORY":"SGP4","EPHEMERIS_TYPE":"0","MEAN_ANOMALY":"323.7781","NORAD_CAT_ID":"52852"},{"PERIAPSIS":"538.392","FILE":"3650001","OBJECT_NAME":"STARLINK-4189","REV_AT_EPOCH":"2234","APOAPSIS":"541.225","ARG_OF_PERICENTER":"39.4526","MEAN_MOTION_DDOT":"0.0000000000000","ELEMENT_SET_NO":"999","CLASSIFICATION_TYPE":"U","GP_ID":"217276826","RA_OF_ASC_NODE":"83.0787","CENTER_NAME":"EARTH","EPOCH":"2022-11-09T15:51:14.500800","SEMIMAJOR_AXIS":"6917.944","RCS_SIZE":"LARGE","COUNTRY_CODE":"US","OBJECT_TYPE":"PAYLOAD","LAUNCH_DATE":"2022-06-17","BSTAR":"-0.00008163200000","MEAN_MOTION":"15.08819334","TLE_LINE2":"2 52853  53.2195  83.0787 0002047  39.4526 320.6614 15.08819334 22340","TLE_LINE1":"1 52853U 22062Z   22313.66058450 -.00001586  00000-0 -81632-4 0  9996","MEAN_MOTION_DOT":"-0.00001586","DECAY_DATE":null,"INCLINATION":"53.2195","REF_FRAME":"TEME","OBJECT_ID":"2022-062Z","SITE":"AFETR","PERIOD":"95.439","ECCENTRICITY":"0.00020470","TIME_SYSTEM":"UTC","NORAD_CAT_ID":"52853","MEAN_ANOMALY":"320.6614","EPHEMERIS_TYPE":"0","MEAN_ELEMENT_THEORY":"SGP4"},{"TIME_SYSTEM":"UTC","MEAN_ELEMENT_THEORY":"SGP4","NORAD_CAT_ID":"52854","MEAN_ANOMALY":"320.5021","EPHEMERIS_TYPE":"0","OBJECT_ID":"2022-062AA","TLE_LINE2":"2 52854  53.2188  83.0640 0001993  39.6117 320.5021 15.08831025 22340","DECAY_DATE":null,"TLE_LINE1":"1 52854U 22062AA  22313.66426161 -.00001229  00000-0 -59165-4 0  9995","MEAN_MOTION_DOT":"-0.00001229","INCLINATION":"53.2188","REF_FRAME":"TEME","ECCENTRICITY":"0.00019930","SITE":"AFETR","PERIOD":"95.438","MEAN_MOTION":"15.08831025","LAUNCH_DATE":"2022-06-17","BSTAR":"-0.00005916500000","SEMIMAJOR_AXIS":"6917.908","RCS_SIZE":"LARGE","EPOCH":"2022-11-09T15:56:32.203104","OBJECT_TYPE":"PAYLOAD","COUNTRY_CODE":"US","GP_ID":"217277075","CENTER_NAME":"EARTH","RA_OF_ASC_NODE":"83.0640","ELEMENT_SET_NO":"999","CLASSIFICATION_TYPE":"U","MEAN_MOTION_DDOT":"0.0000000000000","ARG_OF_PERICENTER":"39.6117","FILE":"3650001","OBJECT_NAME":"STARLINK-4204","PERIAPSIS":"538.394","APOAPSIS":"541.152","REV_AT_EPOCH":"2234"},{"APOAPSIS":"541.139","REV_AT_EPOCH":"2236","PERIAPSIS":"538.417","FILE":"3650001","OBJECT_NAME":"STARLINK-4209","MEAN_MOTION_DDOT":"0.0000000000000","ARG_OF_PERICENTER":"47.0953","CLASSIFICATION_TYPE":"U","ELEMENT_SET_NO":"999","RA_OF_ASC_NODE":"82.5179","CENTER_NAME":"EARTH","GP_ID":"217277676","OBJECT_TYPE":"PAYLOAD","COUNTRY_CODE":"US","RCS_SIZE":"LARGE","SEMIMAJOR_AXIS":"6917.913","EPOCH":"2022-11-09T18:51:23.164128","BSTAR":"-0.00003435000000","LAUNCH_DATE":"2022-06-17","MEAN_MOTION":"15.08829301","ECCENTRICITY":"0.00019670","SITE":"AFETR","PERIOD":"95.438","OBJECT_ID":"2022-062AB","MEAN_MOTION_DOT":"-0.00000835","TLE_LINE1":"1 52855U 22062AB  22313.78568477 -.00000835  00000-0 -34350-4 0  9997","DECAY_DATE":null,"REF_FRAME":"TEME","INCLINATION":"53.2167","TLE_LINE2":"2 52855  53.2167  82.5179 0001967  47.0953 313.0204 15.08829301 22367","MEAN_ELEMENT_THEORY":"SGP4","EPHEMERIS_TYPE":"0","NORAD_CAT_ID":"52855","MEAN_ANOMALY":"313.0204","TIME_SYSTEM":"UTC"},{"ELEMENT_SET_NO":"999","CLASSIFICATION_TYPE":"U","GP_ID":"217276488","RA_OF_ASC_NODE":"82.5003","CENTER_NAME":"EARTH","OBJECT_NAME":"STARLINK-4201","FILE":"3650001","PERIAPSIS":"538.622","APOAPSIS":"540.941","REV_AT_EPOCH":"2236","MEAN_MOTION_DDOT":"0.0000000000000","ARG_OF_PERICENTER":"46.6216","OBJECT_ID":"2022-062AC","TLE_LINE2":"2 52856  53.2173  82.5003 0001676  46.6216 313.4915 15.08828269 22360","DECAY_DATE":null,"TLE_LINE1":"1 52856U 22062AC  22313.78936733 -.00006111  00000-0 -36630-3 0  9997","INCLINATION":"53.2173","MEAN_MOTION_DOT":"-0.00006111","REF_FRAME":"TEME","ECCENTRICITY":"0.00016760","PERIOD":"95.438","SITE":"AFETR","TIME_SYSTEM":"UTC","MEAN_ELEMENT_THEORY":"SGP4","NORAD_CAT_ID":"52856","MEAN_ANOMALY":"313.4915","EPHEMERIS_TYPE":"0","SEMIMAJOR_AXIS":"6917.916","RCS_SIZE":"LARGE","EPOCH":"2022-11-09T18:56:41.337312","OBJECT_TYPE":"PAYLOAD","COUNTRY_CODE":"US","LAUNCH_DATE":"2022-06-17","MEAN_MOTION":"15.08828269","BSTAR":"-0.00036630000000"},{"CENTER_NAME":"EARTH","RA_OF_ASC_NODE":"82.5479","GP_ID":"217277245","CLASSIFICATION_TYPE":"U","ELEMENT_SET_NO":"999","MEAN_MOTION_DDOT":"0.0000000000000","ARG_OF_PERICENTER":"27.7494","APOAPSIS":"540.641","REV_AT_EPOCH":"2236","PERIAPSIS":"538.888","FILE":"3650001","OBJECT_NAME":"STARLINK-4199","MEAN_ELEMENT_THEORY":"SGP4","NORAD_CAT_ID":"52857","MEAN_ANOMALY":"332.3566","EPHEMERIS_TYPE":"0","TIME_SYSTEM":"UTC","ECCENTRICITY":"0.00012670","SITE":"AFETR","PERIOD":"95.438","OBJECT_ID":"2022-062AD","TLE_LINE2":"2 52857  53.2167  82.5479 0001267  27.7494 332.3566 15.08833638 22363","TLE_LINE1":"1 52857U 22062AD  22313.77833902 -.00001704  00000-0 -89031-4 0  9998","MEAN_MOTION_DOT":"-0.00001704","DECAY_DATE":null,"INCLINATION":"53.2167","REF_FRAME":"TEME","MEAN_MOTION":"15.08833638","LAUNCH_DATE":"2022-06-17","BSTAR":"-0.00008903100000","OBJECT_TYPE":"PAYLOAD","COUNTRY_CODE":"US","SEMIMAJOR_AXIS":"6917.900","RCS_SIZE":"LARGE","EPOCH":"2022-11-09T18:40:48.491328"}];
